address,slots,name,bikes,status,zip,id,lon,lat,stationType,addressNumber,nearbyStations,district
001 - Río Balsas-Río Sena,17,1 RIO BALSAS-RIO SENA,9,OPN,06500,1,-99.168051,19.433296,"BIKE,TPV",S/N,"2,3,85",CUA
002 - Río Guadalquivir - Río Balsas,5,2 RIO GUADALQUIVIR-RIO BALSAS,7,OPN,06500,2,-99.171695,19.431386,BIKE,S/N,"1,5",CUA
003 - Reforma - Insurgentes,7,3 REFORMA-INSURGENTES,28,OPN,06500,3,-99.158668,19.431655,"BIKE,TPV",S/N,"8,20,86",1
004 - Río Nilo - Río Panuco,12,4 RIO NILO-RIO PANUCO,3,OPN,06500,4,-99.171713,19.428309,BIKE,S/N,"5,8,9,10",CUA
005 - Río Pánuco Río Tiber,6,5 RIO PANUCO-RIO TIBER,6,OPN,06500,5,-99.169363,19.42972,BIKE,S/N,"2,4,9,10",CUA
006 - Río Pánuco - Río Sena,4,6 RIO PANUCO-RIO SENA,11,OPN,06500,6,-99.166959,19.430922,BIKE,S/N,"1,3,5,10",CUA
007 - Río Elba - Río Lerma,3,7 RIO ELBA-RIO LERMA,21,OPN,06500,7,-99.175166,19.425468,BIKE,S/N,"13,14,21,28",CUA
008 - Reforma - General Prim,8,8 REFORMA-GENERAL PRIM,3,OPN,06500,8,-99.158317,19.431141,BIKE,S/N,"3,20,86",TAB
009 - Río Guadalquivir - Río Lerma,23,9 RIO GUADALQUIVIR-RIO LERMA,1,OPN,06500,9,-99.169918,19.428009,BIKE,S/N,"4,5,8,16",CUA
010 - Reforma - Ramírez,4,10 REFORMA-RAMIREZ,32,OPN,06500,10,-99.154752,19.433321,"BIKE,TPV",S/N,26,TAB
011 - Río Amazonas - Rio Lerma,14,11 RIO AMAZONAS-RIO LERMA,1,OPN,06500,11,-99.163593,19.430992,BIKE,S/N,"3,12,19",CUA
012 - Río Lerma - Villalongin,14,12 RIO LERMA-VILLALONGIN,1,OPN,06500,12,-99.161597,19.432313,BIKE,S/N,"11,19,20,85",1
013 - Reforma - Rio Rodano,33,13 REFORMA-RIO RODANO,3,OPN,06500,13,-99.175558,19.423778,"BIKE,TPV",S/N,"7,14,21",1
014 - Reforma - Rio de Plata,9,14 REFORMA-RIO DE PLATA,27,OPN,06500,14,-99.173261,19.424768,BIKE,S/N,"13,21,22,28",CUA
015 - Reforma - Rio Mississippi,1,15 REFORMA-RIO MISSISSIPPI,23,OPN,06500,15,-99.171567,19.425477,"BIKE,TPV",S/N,"14,16,22,23",CUA
016 - Reforma - Rio Guadalquivir,0,16 REFORMA-RIO GUADALQUIVIR,36,OPN,06500,16,-99.169164,19.42653,BIKE,S/N,"9,23,24",1
017 - Reforma - Rio Tiber,24,17 REFORMA-RIO TIBER,3,OPN,06500,17,-99.167125,19.427501,"BIKE,TPV",S/N,"16,18,25",1
018 - Reforma - Rio Sena,17,18 REFORMA-RIO SENA,19,OPN,06500,18,-99.165543,19.42836,"BIKE,TPV",S/N,"17,25",CUA
019 - Reforma - Rio Neva,21,19 REFORMA-RIO NEVA,3,OPN,06500,19,-99.161675,19.43001,"BIKE,TPV",S/N,"12,20,27",1
020 - Reforma- Rio Tamesis,17,20 REFORMA-RIO TAMESIS,7,OPN,06500,20,-99.160206,19.430964,BIKE,S/N,"12,19,27",CUA
021 - Reforma - Lieja,11,21 REFORMA-LIEJA,15,OPN,06500,21,-99.175124,19.423317,"BIKE,TPV",S/N,"7,13,14,28",1
022 - Reforma - Manchester,14,22 REFORMA-MANCHESTER,21,OPN,06500,22,-99.172575,19.424375,"BIKE,TPV",S/N,"14,15,23,28",JUA
023 - Reforma - Praga,26,23 REFORMA-PRAGA,9,OPN,06500,23,-99.170414,19.425483,BIKE,S/N,"15,16,22",JUA
024 - Reforma- Varsovia,9,24 REFORMA-VARSOVIA,18,OPN,06500,24,-99.168992,19.426102,"BIKE,TPV",S/N,"16,23",JUA
025 - Reforma - Estocolmo,0,25 REFORMA-ESTOCOLMO,27,OPN,06500,25,-99.166946,19.426944,BIKE,S/N,"17,18",JUA
026 - Reforma - Versalles,4,26 REFORMA-VERSALLES,14,OPN,06500,26,-99.154726,19.432685,"BIKE,TPV",S/N,10,JUA
027 - Reforma- Havre,25,27 REFORMA-HAVRE,10,OPN,06500,27,-99.162614,19.429115,"BIKE,TPV",S/N,"19,26,31",JUA
028 - Toledo- Tokio,2,28 TOLEDO-TOKIO,25,OPN,06500,28,-99.172494,19.423542,BIKE,S/N,"14,21,22",JUA
029 - Reforma - Bucareli,13,29 REFORMA-BUCARELI,23,OPN,06500,29,-99.149939,19.434913,"BIKE,TPV",S/N,41,CEN
030 - Hamburgo - Genova,19,30 HAMBURGO-GENOVA,17,OPN,06500,30,-99.164323,19.426442,"BIKE,TPV",S/N,"26,34,35",JUA
031 - Hamburgo - Insurgentes,19,31 HAMBURGO-INSURGENTES,17,OPN,06500,31,-99.161193,19.427838,BIKE,S/N,"19,27,30",JUA
032 - Londres - Sevilla,3,32 LONDRES-SEVILLA,33,OPN,06500,32,-99.169922,19.422705,BIKE,S/N,"22,38,39",JUA
033 - Londres - Florencia,19,33 LONDRES-FLORENCIA,8,OPN,06500,33,-99.166431,19.424234,BIKE,S/N,"29,39,40",JUA
034 - Liverpool - Genova,21,34 LIVERPOOL-GENOVA,14,OPN,05600,34,-99.163503,19.424539,BIKE,S/N,"30,33,35",JUA
035 - Liverpool - Genova,21,35 LIVERPOOL-GENOVA,14,OPN,06500,35,-99.163123,19.424572,"BIKE,TPV",S/N,"30,34,40",JUA
036 - Puebla - Veracruz,11,36 PUEBLA-VERACRUZ,22,OPN,06140,36,-99.175778,19.419725,"BIKE,TPV",S/N,"37,41,44",1
037 - Guadalajara - Puebla,17,37 GUADALAJARA-PUEBLA,4,OPN,06700,37,-99.172676,19.420419,BIKE,S/N,"28,38,45",R-N
038 - Cozumel - PUEBLA,21,38 COZUMEL-PUEBLA,15,OPN,06700,38,-99.171407,19.420801,BIKE,S/N,"28,32,37",R-N
039 - Medellin - Chapultepec,15,39 MEDELLIN-CHAPULTEPEC,5,OPN,06700,39,-99.167153,19.422484,BIKE,S/N,"33,42,48",R-N
040 - Oaxaca - Puebla,15,40 OAXACA-PUEBLA,8,OPN,06700,40,-99.164297,19.42223,BIKE,S/N,"35,42",R-N
041 - Reforma - Av. de la República,26,41 REFORMA-AV. DE LA REPUBLICA,9,OPN,06700,41,-99.150137,19.435637,"BIKE,TPV",S/N,29,1
042 - Sinaloa - Valladolid,14,42 SINALOA-VALLADOLID,9,OPN,06700,42,-99.168238,19.420472,BIKE,S/N,"39,47,48,51",R-N
043 - Revillagigedo - Juárez,18,43 JUAREZ-REVILLAGIGEDO,15,OPN,06700,43,-99.146063,19.435228,"BIKE,TPV",S/N,"52,82",CEN
044 - Durango - Veracruz,19,44 DURANGO-VERACRUZ,7,OPN,06140,44,-99.174761,19.418057,BIKE,S/N,"36,41,49,50",R-N
045 - Durango - Sonora,2,45 DURANGO-SONORA,34,OPN,06700,45,-99.172127,19.418649,"BIKE,TPV",S/N,"37,38,41,46",R-N
046 - Durango - Salamanca,0,46 DURANGO-SALAMANCA,36,OPN,06700,46,-99.169732,19.419214,BIKE,S/N,"42,45,51,54",R-N
047 - Glorieta Cibeles - Oaxaca,1,47 GLORIETA CIBELES-OAXACA,23,OPN,06700,47,-99.166299,19.419515,"BIKE,TPV",S/N,"42,51,56",1
048 - Independencia - Azueta,6,48 INDEPENDENCIA-AZUETA,6,OPN,06700,48,-99.146557,19.433686,BIKE,S/N,"43,82",CEN
049 - Mazatlán - Juan de la Barrera,21,49 MAZATLAN-JUAN DE LA BARRERA,14,OPN,06140,49,-99.175704,19.416712,BIKE,S/N,"41,44,50,60",CON
050 - Cuernavaca - Veracruz,13,50 CUERNAVACA-VERACRUZ,13,OPN,06140,50,-99.173648,19.416938,BIKE,S/N,"44,49,57,58",CON
051 - Colima - Oaxaca,10,51 COLIMA-OAXACA,17,OPN,06700,51,-99.168248,19.417995,BIKE,S/N,"46,47,55,58",R-N
052 - Dolores - Juárez,2,52 HIDALGO-TRUJANO,19,OPN,06140,52,-99.142039,19.436236,"BIKE,TPV",S/N,43,CEN
053 - Fernando Montes de Oca - Tula,8,53 FERNANDO MONTES DE OCA-TULA,7,OPN,06140,53,-99.178433,19.414773,BIKE,S/N,"52,60,65,66",CON
054 - Parque España - Sonora,24,54 PARQUE ESPAÑA-SONORA,12,OPN,06700,54,-99.170825,19.416215,"BIKE,TPV",S/N,"50,51,58,63",CON
055 - 5 de Mayo - Bolívar,11,55 5 DE MAYO-BOLIVAR,4,OPN,06700,55,-99.138064,19.434356,"BIKE,TPV",S/N,"65,87",1
056 - Alvaro Obregón - Medellin,28,56 ALVARO OBREGON-MEDELLIN,8,OPN,06700,56,-99.165702,19.416959,BIKE,S/N,"47,51,55,59",R-N
057 - Cuernavaca - Juan Escutia,8,57 CUERNAVACA-JUAN ESCUTIA,3,OPN,06140,57,-99.17495,19.414903,BIKE,S/N,"48,49,50,62",1
058 - Parque España - Juan de la Barrera,23,58 PARQUE ESPAÑA-JUAN DE LA BARRERA,4,OPN,06140,58,-99.171793,19.41568,BIKE,S/N,"50,54,61,63",CON
059 - Popocatépetl - Amsterdam,21,59 POPOCATEPETL-AMSTERDAM,14,OPN,06100,59,-99.166661,19.415121,BIKE,S/N,"55,56,61,64",HIP
060 - Mazatlán - Fernando Montes de Oca,35,60 MAZATLAN-FERNANDO MONTES DE OCA,1,OPN,06140,60,-99.177123,19.414191,BIKE,S/N,"23,52,62,66",CON
061 - Avenida México - Sonora,16,61 AVENIDA MEXICO-SONORA,20,OPN,06100,61,-99.169525,19.413742,"BIKE,TPV",S/N,"59,63,64,70",HIP
062 - Fernando Montes de Oca - Amatlan,1,62 FERNANDO MONTES DE OCA-AMATLAN,17,OPN,06140,62,-99.175202,19.413322,BIKE,S/N,"67,71,74",CON
063 - Nuevo León - Laredo,23,63 NUEVO LEON- LAREDO,13,OPN,06100,63,-99.171531,19.413681,"BIKE,TPV",S/N,"70,76,77",1
064 - Sonora - Amsterdam,21,64 SONORA-AMSTERDAM,15,OPN,06100,64,-99.166986,19.412877,BIKE,S/N,"59,61,69",HIP
065 - Marconi - Tacuba,13,65 MARCONI-TACUBA,5,OPN,06170,65,-99.139906,19.436142,"BIKE,TPV",S/N,"52,55",CEN
066 - Mazatlán - Francisco Marquez,17,66 MAZATLAN-FRANCISCO MARQUEZ,10,OPN,06170,66,-99.178666,19.411402,BIKE,S/N,"65,72",1
067 - Vicente Suárez - Michoacan,19,67 VICENTE SUAREZ-MICHOACAN,5,OPN,06170,67,-99.17588,19.411797,BIKE,S/N,"62,66,68",CON
068 - Tamaulipas - Michoacan,27,68 TAMAULIPAS-MICHOACAN,3,OPN,06170,68,-99.17406,19.411556,"BIKE,TPV",S/N,"67,71,74",CON
069 - Michoacán - Amsterdam,12,69 MICHOACAN-AMSTERDAM,9,OPN,06100,69,-99.168111,19.410733,BIKE,S/N,"70,76,77",HIP
070 - Parque México - Michoacan,30,70 PARQUE MEXICO-MICHOACAN,6,OPN,06100,70,-99.169718,19.411272,"BIKE,TPV",S/N,"69,71,76",1
071 - Amsterdam - Michoacan,31,71 AMSTERDAM-MICHOACAN,5,OPN,06100,71,-99.171351,19.411423,BIKE,S/N,"70,74,76",HIP
072 - Mazatlán - Alfonso Reyes,13,72 MAZATLAN-ALFONSO REYES,14,OPN,06170,72,-99.179544,19.409893,BIKE,S/N,"65,66,75",1
073 - Campeche - Tamaulipas,34,73 CAMPECHE-TAMAULIPAS,2,OPN,06170,73,-99.175612,19.410245,BIKE,S/N,"67,68,75",H-C
074 - Nuevo León - Ozulama,20,74 NUEVO LEON-OZULAMA,6,OPN,06100,74,-99.172831,19.410343,BIKE,S/N,"63,68,71",1
075 - Alfonso Reyes - Atlixco,11,75 ALFONSO REYES-ATLIXCO,4,OPN,06170,75,-99.17669,19.408722,BIKE,S/N,"73,77,78",H-C
076 - Amsterdam - Chilpancingo,17,76 AMSTERDAM-CHILPANCINGO,3,OPN,06100,76,-99.170462,19.409439,BIKE,S/N,"70,71,74",HIP
077 - Choapan - Tamaulipas,7,77 CHOAPAN-TAMAULIPAS,8,OPN,06100,77,-99.178321,19.406765,BIKE,S/N,"78,82",HIP
078 - Benjamín Hill - Tamaulipas,24,78 BENJAMIN HILL-TAMAULIPAS,12,OPN,06170,78,-99.177382,19.407503,"BIKE,TPV",S/N,"77,82",HIP
079 - Saltillo - Alfonso Reyes,17,79 SALTILLO-ALFONSO REYES,10,OPN,06100,79,-99.174427,19.407534,BIKE,S/N,"75,80,83",HIP
080 - Nuevo León - Aguascalientes,24,80 NUEVO LEON-AGUASCALIENTES,12,OPN,06100,80,-99.172118,19.407307,BIKE,S/N,"79,83,84",HIP
081 - Aguascalientes - Insurgentes,13,81 AGUASCALIENTES-INSURGENTES,14,OPN,06100,81,-99.168475,19.408006,BIKE,S/N,"76,84",HIP
082 - Independencia - Marroquí,11,82 INDEPENDENCIA-MARROQUI,1,OPN,06100,82,-99.143686,19.433115,"BIKE,TPV",S/N,"43,48",CEN
083 - Nuevo León - Alfonso Reyes,13,83 NUEVO LEON-ALFONSO REYES,2,OPN,06100,83,-99.172117,19.406296,"BIKE,TPV",S/N,"79,80",HIP
084 - Chilpancingo - Tlaxcala,18,84 CHILPANCINGO-TLAXCALA,3,OPN,06100,84,-99.169587,19.40702,BIKE,S/N,"81,83",HIP
085 - Rosas Moreno - Sullivan,10,85 ROSAS MORENO-SULLIVAN,5,OPN,06470,85,-99.162508,19.43425,BIKE,S/N,"1,3,12",S-R
086 - Sullivan-Insurgentes,6,86 SULLIVAN-INSURGENTES,15,OPN,06470,86,-99.159077,19.432378,"BIKE,TPV",S/N,"12,20",1
087 - Gante - Venustiano Carranza,22,87 GANTE-VENUSTIANO CARRANZA,1,OPN,,87,-99.13974,19.43182,"BIKE,TPV",S/N,"95,96",CEN
088 - 2a Cerrada de 5 de Mayo - Palma,15,88 2A CDA 5 DE MAYO-PALMA,0,CLS,,88,-99.135303,19.433815,BIKE,S/N,"55,89",1
089 - República de Guatemala - Monte de Piedad,8,89 REPUBLICA DE GUATEMALA-MONTE DE PIEDAD,4,OPN,,89,-99.133989,19.434946,"BIKE,TPV",S/N,90,CEN
090 - José María Pino Suárez - Corregidora,23,90 JOSE MARIA PINO SUAREZ-CORREGIDORA,3,OPN,,90,-99.132446,19.431698,"BIKE,TPV",S/N,89,CEN
091 - Republica de Cuba-Allende,16,91 REPUBLICA DE CUBA-ALLENDE,4,OPN,06500,91,-99.137571,19.4374,BIKE,S/N,"90,92,93",CEN
092 - San Ildefonso-República de Argentina,21,92 SAN ILDEFONSO-REPUBLICA DE ARGENTINA,0,OPN,06500,92,-99.131497,19.436531,BIKE,S/N,"90,91,93",CEN
093 - Palma Norte-Republica de Cuba,28,93 PALMA NORTE-REPUBLICA DE CUBA,8,OPN,06500,93,-99.134811,19.436741,BIKE,S/N,"90,91,92",CEN
94 - Lic. Verdad-Moneda,15,94 LIC. VERDAD-MONEDA,9,OPN,,94,-99.130918,19.433766,BIKE,S/N,94,CEN
095 - 20 de Noviembre-Venustiano Carranza,14,95 20 DE NOVIEMBRE-VENUSTIANO CARRANZA,4,OPN,06500,95,-99.133698,19.430722,BIKE,S/N,"93,96,97",CEN
096 - López-Ayuntamiento,13,96 LOPEZ-AYUNTAMIENTO,23,OPN,06500,96,-99.14248,19.430625,BIKE,S/N,96,CEN
097 - Republica de Salvador-Pino Suarez,21,97 REPUBLICA DE SALVADOR-PINO SUAREZ,6,OPN,06500,97,-99.132759,19.429189,"BIKE,TPV",S/N,"90,100",CEN
098 - Emilio Dondé-Av. Balderas,36,98 EMILIO DONDE-AV. BALDERAS,0,CLS,06500,98,-99.14861,19.430267,BIKE,S/N,"107,108",CEN
99 - Ernesto Pugibet-Luis Moya,26,99 ERNESTO PUGIBET-LUIS MOYA,4,OPN,,99,-99.14591,19.42995,BIKE,S/N,"96,122",CEN
100 - 20 de Noviembre-Mesones,21,100 20 DE NOVIEMBRE-MESONES,3,OPN,06500,100,-99.1338,19.428485,BIKE,S/N,"95,97,101",CEN
1ER. CALLEJÓN DE MESONES - MESONES,17,101 1ER. CALLEJÓN DE MESONES-MESONES,14,OPN,,101,-99.135895,19.428366,BIKE,S/N,"100,104,105",CEN
102 - Echeveste-Bolivar,10,102 ECHEVESTE-BOLIVAR,5,OPN,,102,-99.13949,19.42821,BIKE,S/N,"101,104,109",1
103 JOAQUÍN VELÁZQUEZ DE LEÓN-GARCÍA ICAZBALCETA,16,103 JOAQUÍN VELÁZQUEZ DE LEÓN-GARCÍA ICAZBALCETA,11,OPN,,103,-99.165217,19.441669,BIKE,s/n,103,S-R
104 - San Jerónimo-Isabel la Católica,3,104 SAN JERONIMO-ISABEL LA CATOLICA,12,OPN,06500,104,-99.137116,19.427059,"BIKE,TPV",S/N,"101,105,109",CUA
105 - San Jerónimo-5 de Febrero,16,105 SAN JERONIMO-5 DE FEBRERO,7,OPN,06500,105,-99.135014,19.426755,BIKE,S/N,"101,104,106",CEN
106 - San Jerónimo-José María Pino Suarez,6,106 SAN JERONIMO-JOSE MARIA PINO SUAREZ,20,OPN,06500,106,-99.133537,19.42649,BIKE,S/N,"100,101,105",CEN
107 - Tolsa-Balderas,22,107 TOLSA-BALDERAS,14,OPN,06500,107,-99.149971,19.427329,BIKE,S/N,"108,122",CEN
108 - Tolsa-Balderas,24,108 TOLSA-BALDERAS,12,OPN,06500,108,-99.149533,19.427305,"BIKE,TPV",S/N,"107,122",CEN
109 - Nezahualcóyotl-Isabel la Católica,23,109 NEZAHUALCOYOTL-ISABEL LA CATOLICA,7,OPN,06500,109,-99.137421,19.425311,BIKE,S/N,"104,105,106",CEN
110 - Dr. Valenzuela-Dr. Río de la loza,31,110 DR. VALENZUELA-DR. RÍO DE LA LOZA,5,OPN,,110,-99.14339,19.42513,BIKE,S/N,"107,108,122",1
111 GUILLERMO PRIETO-JOAQUÍN VELÁZQUEZ DE LEÓN,18,111 GUILLERMO PRIETO-JOAQUÍN VELÁZQUEZ DE LEÓN,6,OPN,,111,-99.166474,19.438371,BIKE,S/N,"103,160,183",S-R
112 - Av. Morelos-Abraham González,12,112 AV. MORELOS-ABRAHAM GONZALEZ,11,OPN,06500,112,-99.151734,19.432819,BIKE,S/N,"113,114",1
113 - General Prim-Versalles,7,113 GENERAL PRIM-VERSALLES,14,OPN,06500,113,-99.154419,19.430369,BIKE,S/N,"114,116,119",JUA
114 - Lucerna-Abraham González,1,114 LUCERNA-ABRAHAM GONZALEZ ,23,OPN,06500,114,-99.153618,19.428989,BIKE,S/N,"113,116,119",JUA
115 - Roma-Dinamarca,8,115 ROMA-DINAMARCA ,16,OPN,06500,115,-99.159698,19.429947,BIKE,S/N,"116,117,118",JUA
116 - Londres-Roma,11,116 LONDRES-ROMA,13,OPN,06500,116,-99.15664,19.428985,BIKE,S/N,"115,118,199",JUA
117 - Londres-Napoles,14,117 LONDRES-NAPOLES ,17,OPN,06500,117,-99.160369,19.427132,BIKE,S/N,"116,118,120",JUA
118 - Liverpool-Dinamarca,14,118 LIVERPOOL-DINAMARCA,6,OPN,06500,118,-99.158251,19.427114,BIKE,S/N,"116,117,120",JUA
119 - Turín-Abraham González,31,119 TURÍN-ABRAHAM GONZÁLEZ,4,OPN,,119,-99.15554,19.42679,BIKE,S/N,"114,118,125",JUA
120 - Marsella-Nápoles,9,120 MARSELLA-NAPOLES,15,OPN,06500,120,-99.159458,19.425437,BIKE,S/N,"117,118",JUA
121 - Niza-Chapultepec,17,121 NIZA-CHAPULTEPEC,0,OPN,06500,121,-99.161317,19.424137,BIKE,S/N,"117,120,128",JUA
122 - José María Vértiz-Av. Dr. Río de la Loza,18,122 JOSE MARIA VERTIZ-AV.DR. RIO DE LA LOZA,12,OPN,06500,122,-99.146337,19.425502,BIKE,S/N,"99,108,110",DOC
123 - Claudio Bernard-Dr. Lavista,17,123 CLAUDIO BERNARD-DR. LAVISTA,12,OPN,06500,123,-99.153117,19.424161,BIKE,S/N,"124,125,133",1
124 - Claudio Bernard-Dr. Liceaga,20,124 CLAUDIO BERNARD-DR. LICEAGA,16,OPN,06500,124,-99.150358,19.422392,BIKE,S/N,"119,123,133",DOC
125 - Morelia-Circular de Morelia,23,125 MORELIA-CIRCULAR DE MORELIA,12,OPN,06500,125,-99.156204,19.424541,BIKE,S/N,"119,123,127",R-N
126 - Jalapa-Puebla,9,126 JALAPA-PUEBLA,26,OPN,,126,-99.162138,19.422288,BIKE,S/N,"128,129",R-N
127 -  Puebla-Merida,26,127 PUEBLA-MERIDA,3,OPN,,127,-99.15833,19.423318,BIKE,S/N,"125,128,130",R-N
128 - Orizaba-Río de Janeiro,10,128 ORIZABA-RIO DE JANEIRO,14,OPN,06500,128,-99.160645,19.422148,"BIKE,TPV",S/N,"126,127",R-N
129 - Tonalá-Durango,0,129 TONALÁ-DURANGO,23,OPN,,129,-99.163312,19.4206,BIKE,S/N,"126,128,131",R-N
130 - Mérida-Durango,12,130 MÉRIDA-DURANGO,9,OPN,,130,-99.158015,19.421576,BIKE,S/N,"127,132,133",R-N
131 - Colima-Jalapa,4,131 COLIMA-JALAPA,14,OPN,,131,-99.161314,19.419579,BIKE,S/N,"129,134",R-N
132 - Colima-Frontera,11,132 COLIMA-FRONTERA,13,OPN,,132,-99.15645,19.420667,BIKE,S/N,"130,133,135",R-N
133 - Colima-Morelia,33,133 COLIMA-MORELIA,2,OPN,,133,-99.154725,19.421138,BIKE,S/N,"130,132,135",R-N
134 - Álvaro Obregón-Orizaba,28,134 ÁLVARO OBREGÓN-ORIZABA,5,OPN,,134,-99.15956,19.418304,"BIKE,TPV",S/N,"131,136,137",R-N
135 - Álvaro Obregón-Morelia,21,135 ÁLVARO OBREGÓN-MORELIA,15,OPN,,135,-99.155099,19.419225,"BIKE,TPV",S/N,"132,133,137",R-N
136 - Tonalá-Álvaro Obregón,6,136 ÁLVARO OBREGÓN-TONALÁ,21,OPN,,136,-99.162729,19.417715,"BIKE,TPV",S/N,136,R-N
137 - Álvaro Obregón-Mérida,17,137 ÁLVARO OBREGÓN-MÉRIDA,10,OPN,,137,-99.157081,19.418774,BIKE,S/N,"132,135,138",R-N
138 - Guanajuato-Frontera,16,138 GUANAJUATO-FRONTERA,8,OPN,,138,-99.155313,19.417702,BIKE,S/N,"135,140,144",R-N
139 - Tonalá-Guanajuato,0,139 TONALÁ-GUANJUATO,24,OPN,,139,-99.162097,19.416128,BIKE,S/N,"134,136,141",R-N
140 - Mérida-Zacatecas,10,140 MÉRIDA-ZACATECAS,7,OPN,,140,-99.156853,19.416605,BIKE,S/N,"138,141,144",R-N
141 - Zacatecas-Luis Cabrera,1,141 ZACATECAS-LUIS CABRERA,29,OPN,,141,-99.15954,19.415905,"BIKE,TPV",S/N,"139,140,143",R-N
142 - San Luis Potosí-Eje 2 Pte. Monterrey,2,142 SAN LUIS POTOSI-EJE 2 PTE. MONTERREY,28,OPN,,142,-99.164121,19.413232,BIKE,S/N,"139,145,146",R-N
143 - Córdoba-San Luis Potosí,11,143 CÓRDOBA-SAN LUIS POTOSÍ,10,OPN,,143,-99.157542,19.414303,BIKE,S/N,"141,144,147",R-N
144 - Frontera-San Luis Potosí,22,144 FRONTERA-SAN LUIS POTOSÍ,5,OPN,,144,-99.154837,19.415192,BIKE,S/N,"140,143,148",R-N
145 - Eje 2 Sur Yucatán-Chiapas,20,145 EJE 2 SUR YUCATÁN-CHIAPAS,7,OPN,,145,-99.160661,19.41286,BIKE,S/N,"142,147,151",R-N
146 - Coahuila-Manzanillo,14,146 COAHUILA-MANZANILLO,9,OPN,,146,-99.165716,19.410737,BIKE,S/N,"150,152,153",R-N
147 - Coahuila-Orizaba,15,147 COAHUILA-ORIZABA,12,OPN,,147,-99.158443,19.412182,BIKE,S/N,"145,149,151",R-N
148 - Coahuila-Av. Cuauhtémoc,10,148 COAHUILA-AV.CUAUHTEMOC,14,OPN,,148,-99.155116,19.412829,BIKE,S/N,"143,147,149",R-N
149 - Mérida-Antonio Anza,26,149 MÉRIDA-ANTONIO ANZA,10,OPN,,149,-99.155699,19.41199,BIKE,S/N,"143,147,148",R-N
150 - Campeche-Medellín,8,150 CAMPECHE-MEDELLÍN,19,OPN,,150,-99.164292,19.409965,BIKE,S/N,"146,151,152",1
151 - Campeche-Tonalá,22,151 CAMPECHE-TONALÁ,5,OPN,,151,-99.160873,19.410529,BIKE,S/N,"145,147,155",ROM
152 - Tlacotalpan-Campecha,23,152 TLACOTALPAN-CAMPECHE,7,OPN,,152,-99.167181,19.409098,"BIKE,TPV",S/N,"146,150,157",ROM
153 - Manzanillo-Tlaxcala,12,153 MANZANILLO-TLAXCALA,9,OPN,,153,-99.165141,19.407468,BIKE,S/N,"154,157,161",ROM
154 - Tuxpan-Tlaxcala,22,154 TUXPAN-TLAXCALA,11,OPN,,154,-99.167962,19.406683,"BIKE,TPV",S/N,"152,153,157",1
155 - Jalapa-Tlaxcala,24,155 JALAPA-TLAXCALA,9,OPN,,155,-99.159911,19.408218,BIKE,S/N,"151,156,158",ROM
156 - Tepic-Amenalco,4,156 TEPIC-AMENALCO,14,OPN,,156,-99.162202,19.407121,BIKE,S/N,"153,155,162",ROM
157 - Tepic-Tlacotalpan,19,157 TEPIC-TLACOTALPAN,11,OPN,,157,-99.166616,19.406236,BIKE,S/N,"153,154,161",ROM
158 - Huatabampo- Eje 1 Pte. Av. Cuauhtémoc,16,158 HUATABAMPO-EJE 1PTE. CUAUHTÉMOC,19,OPN,,158,-99.155717,19.407447,"BIKE,TPV",S/N,"155,159,163",ROM
159 - Huatabampo-Eje 1 Pte. Av. Cuauhtémoc,15,159 HUATABAMPO-EJE 1 PTE. AV. CUAUHTÉMOC,21,OPN,,159,-99.155373,19.407517,BIKE,S/N,"155,158,163",ROM
160 - Alfonzo Herrera-Gabino Barrera,15,160 ALFONSO HERRERA-GABINO BARRERA,15,OPN,,160,-99.16346,19.44025,BIKE,S/N,"174,183,254",S-R
161 - Quintana Roo-Manzanillo,19,161 QUINTANA ROO-MANZANILLO,2,OPN,,161,-99.164913,19.405533,BIKE,S/N,"153,157,162",ROM
162 - Tehuantepec-Medellín,17,162 TEHUANTEPEC-MEDELLÍN,10,OPN,,162,-99.162485,19.404907,BIKE,S/N,"156,161,165",ROM
163 - Toluca-Bajío,23,163 TOLUCA-BAJÍO,13,OPN,,163,-99.156431,19.405246,BIKE,S/N,"158,159,165",ROM
164 - Bajío-Tlacotalpan,25,164 BAJÍO-TLACOTALPAN,1,OPN,,164,-99.16596,19.403204,BIKE,S/N,"157,161,162",ROM
165 - Bajío-Eje 2 Pte. Monterrey,6,165 BAJÍO-EJE 2 PTE. MONTERREY,15,OPN,,165,-99.160503,19.404268,BIKE,S/N,"156,162,163",ROM
166 - Progreso-Cda. Antonio Maceo,16,166 PROGRESO-CDA. ANTONIO MACEO,8,OPN,,166,-99.183549,19.406069,BIKE,S/N,"170,172,181",ESC
167 - General Salvador Alvarado-Progreso,24,167 GENERAL SALVADOR ALVARADO-PROGRESO,0,OPN,,167,-99.179375,19.404651,BIKE,S/N,"168,172,178",ESC
168 - Comercio-Progreso,19,168 COMERCIO-PROGRESO,2,OPN,,168,-99.1776,19.403997,"BIKE,TPV",S/N,"167,169,173",ESC
169 - Prosperidad-Progreso,7,169 PROSPERIDAD-PROGRESO,14,OPN,,169,-99.174934,19.403019,BIKE,S/N,"168,170,175",ESC
170 - Observatorio Oriente-Revolución,19,170 OBSERVATORIO ORIENTE-REVOLUCIÓN,2,OPN,,170,-99.184342,19.404029,BIKE,S/N,"166,167,172",ESC
171 - Comercio-Jose Martí,14,171 COMERCIO-JOSE MARTÍ,13,OPN,,171,-99.178199,19.402584,BIKE,S/N,"167,168,173",1
172 - General Francisco Murguia-Jose Martí,0,172 GENERAL FRANCISCO MURGUIA-JOSE MARTÍ,16,OPN,,172,-99.181553,19.403365,BIKE,S/N,"167,170,171",ESC
173 - Minería-Jose Martí,21,173 MINERÍA-JOSÉ MARTÍ,0,OPN,,173,-99.176398,19.401682,BIKE,S/N,"168,169,171",1
174 - Joaquín Garcia-Ignacio Manuel Altamirano,9,174 JOAQUÍN GARCIA-IGNACIO MANUEL ALTAMIRANO,24,OPN,,174,-99.16164,19.44111,"BIKE,TPV",S/N,"160,183,254",1
175 - Mutualismo-José Martí,9,175 MUTUALISMO-JOSÉ MARTí,15,OPN,,175,-99.172645,19.400806,BIKE,S/N,"169,179,182",ESC
176-LUIS DONALDO COLOSIO - AV. JESÜS GARCÏA,34,176 AV. JESÜS GARCÏA-LUIS DONALDO COLOSIO,1,OPN,,176,-99.152286,19.442689,BIKE,S/N,"266,267,272",BUE
177 - BENJAMIN HILL-CARLOS ZETINA,7,177 BENJAMIN HILL-CARLOS ZETINA,13,OPN,,177,-99.181692,19.408841,BIKE,S/N,"176,178,190",H-C
178 - Tamaulipas-Francisco Murguía,20,178 TAMAULIPAS-FRANCISCO MURGUÍA,10,OPN,,178,-99.180457,19.406833,"BIKE,TPV",S/N,"166,167,177",H-C
179 - Nuevo León-Quintana Roo,24,179 NUEVO LEÓN-QUINTANA ROO,3,OPN,,179,-99.171438,19.404452,BIKE,S/N,"154,180,182",HIP
180 - Quintana Roo-Villa Hermosa,24,180 QUINTANA ROO-VILLA HERMOSA,6,OPN,,180,-99.169953,19.404554,BIKE,S/N,"154,179,182",HIP
181 - Benjamin Franklin-Saltillo,19,181 BENJAMIN FRANKLIN-SALTILLO,5,OPN,,181,-99.175095,19.404976,BIKE,S/N,"168,169,179",1
182 - PROGRESO-ASTRONOMOS,8,182 PROGRESO-ASTRONOMOS,28,OPN,,182,-99.17139,19.402089,"BIKE,TPV",S/N,"175,179",HIP
183 - Gabino Barrera-Guillermo Prieto,31,183 GABINO BARRERA-GUILLERMO PRIETO,5,OPN,,183,-99.16402,19.43767,BIKE,S/N,"160,174,255",S-R
184 - General Gómez Pedraza-Gobernador Tiburcio Montiel,7,184 GRAL GÓMEZ PEDRAZA-GOBERNADOR TIBURCIO M,28,OPN,,184,-99.18508,19.41479,"BIKE,TPV",S/N,"185,186,187",SMC
185 - General Antonio Léon-General Pedro Antonio de los Santos,13,185 GRAL ANTONIO LÉON-GRAL PEDRO A DE LOS S.,17,OPN,,185,-99.1828,19.4128,BIKE,S/N,"176,187,190",SMC
186 - Gregorio V. Gelati-Francisco Molinos del C.,14,186 GREGORIO V GELATI-FRANCISCO MOLINOS DEL C,3,OPN,,186,-99.18875,19.41249,BIKE,S/N,"187,188,189",SMC
187 - Genral Cano-Gobernador Gregorio V. Gelati,13,187 GENERAL CANO-GOBERNADOR GREGORIO V GELATI,8,OPN,,187,-99.18551,19.41123,BIKE,S/N,"176,189,190",SMC
188 - Gobernador Melchor Múzquiz-Gobernador Ignacio Esteva,13,188 GDOR MELCHOR MÚZQUIZ-GDOR IGNACIO ESTEVA ,1,OPN,,188,-99.19014,19.41171,"BIKE,TPV",S/N,"186,187,189",SMC
189 - Gobernador Rafael Rebollar-Gobernador José Ceballos,15,189 GDOR RAFAEL REBOLLAR-GDOR JOSÉ CEBALLOS,2,OPN,,189,-99.18798,19.41004,BIKE,S/N,"186,187,188",SMC
190 - Gobernador Ignacio Esteva-Maestro José Vasconcelos,15,190 GDOR IGNACIO ESTEVA-MTRO JOSÉ VASCONCELOS,9,OPN,,190,-99.183833,19.409569,BIKE,S/N,"177,187",SMC
191 - Gobernador Rafael Rebollar-Gobernador Vicente Eguia,17,191 GDOR RAFAEL REBOLLAR-GDOR VICENTE EGUIA,3,OPN,,191,-99.18795,19.4079,BIKE,S/N,"176,189,190",SMC
192 - Rubén Darío-Reforma,21,192 RUBEN DARIO-REFORMA,13,OPN,11510,192,-99.190755,19.42592,"BIKE,TPV",S/N,"193,234,238",CHA
193 - Rubén Darío.Reforma,31,193 RUBEN DARIO-REFORMA,4,OPN,11510,193,-99.190733,19.425907,BIKE,S/N,"192,234,238",CHA
194 - Av. Paseo de la Reforma-Circuito Mahatma Gandhi,12,194 CTO MAHATMA GANDHI-AV. PASEO DE LA REFORMA,10,OPN,11510,194,-99.180334,19.424282,"BIKE,TPV",S/N,"195,253,261",CHA
195 - Circuito Mahatma Gandhi-Av. Paseo de la Reforma,19,195 AV. PASEO DE LA REFORMA-CTO MAHATMA GANDHI,5,OPN,,195,-99.185147,19.424926,"BIKE,TPV",S/N,"194,253,261",CHA
196 - Lago Tanganica- Av. Ejército Nacional,10,196 LAGO TANGANICA-AV. EJERCITO NACIONAL,16,OPN,11510,196,-99.192904,19.438349,BIKE,S/N,"204,244,245",POL
197 - Miguel de Cervantes Saavedra-Ferrocarril de Cuernavaca,35,197 MIGUEL DE CERVANTES-FC DE CUERNAVACA,1,OPN,,197,-99.204316,19.440077,"BIKE,TPV",S/N,197,1
198 - Sócrates-Ejercito Nacional,27,198 SÓCRATES-EJERCITO NACIONAL ,0,OPN,,198,-99.203888,19.438168,"BIKE,TPV",S/N,"240,241",POL
199 - Anatole France-Av. Ejército Nacional,14,199 ANATOLE FRANCE-AV. EJERCITO NACIONAL,10,OPN,11510,199,-99.197241,19.437934,BIKE,S/N,"196,202,203",POL
200 - Emerson-Av. Ejército Nacional,20,200 EMERSON-AV. EJERCITO NACIONAL,6,OPN,11510,200,-99.188785,19.437596,BIKE,S/N,"201,204,245",POL
201 - Lope de Vega-Ejército Nacional,16,201 LOPE DE VEGA-EJERCITO NACIONAL ,2,OPN,11510,201,-99.187215,19.437431,BIKE,S/N,"200,205,245",POL
202 - Calderón de la Barca-Av. Homero,10,202 CALDERON DE LA BARCA-AV. HOMERO,10,OPN,11510,202,-99.198943,19.43617,BIKE,S/N,"199,206,215",POL
203 - Tennyson-Av. Homero,5,203 TENNYSON-AV. HOMERO,19,OPN,11510,203,-99.194832,19.435985,BIKE,S/N,"196,204,210",POL
204 - Temistocles-Homero,24,204 TEMISTOCLES-HOMERO,3,OPN,11510,204,-99.19152,19.435882,BIKE,S/N,"196,200,245",1
205 - Taine-Homero,10,205 TAINE-HOMERO,11,OPN,11510,205,-99.184713,19.435525,BIKE,S/N,"201,207,217",POL
206 - Moliere-Homero,24,206 MOLIERE-HOMERO ,0,OPN,,206,-99.201419,19.435798,"BIKE,TPV",S/N,"202,214,215",POL
207 - Tasso-Homero,21,207 TASSO-HOMERO ,2,OPN,11510,207,-99.183322,19.434861,BIKE,S/N,"205,217,226",POL
208 - Hesiodo-Lamartine,1,208 HESIODO-LAMARTINE ,26,OPN,11510,208,-99.189835,19.434182,BIKE,S/N,"211,212,218",POL
209 - Solón-Horacio,24,209 SOLON-HORACIO ,0,OPN,11510,209,-99.206359,19.435478,BIKE,S/N,"213,214,219",POL
210 Eugenio Sue-Horacio,11,210 EUGENIO SUE-HORACIO ,16,OPN,,210,-99.194091,19.434076,BIKE,S/N,"203,204,216",POL
211 - Newton-Horacio,17,211 NEWTON-HORACIO,19,OPN,11510,211,-99.188528,19.433607,BIKE,S/N,"208,212,218",POL
212 - Hegel-Horacio,17,212 HEGEL-HORACIO ,19,OPN,11510,212,-99.188096,19.433567,"BIKE,TPV",S/N,"211,218,224",POL
213 - Horacio-FC Cuernavaca,26,213 HORACIO-FC CUERNAVACA,1,OPN,11510,213,-99.206967,19.435197,BIKE,S/N,"209,214,219",POL
214 - Platón-Horacio,24,214 PLATÓN-HORACIO,0,OPN,,214,-99.20322,19.434353,BIKE,S/N,"206,209,215",POL
215 - Edgar Alan Poe-Horacio,23,215 EDGAR ALAN POE-HORACIO,1,OPN,11510,215,-99.19968,19.43384,BIKE,S/N,"206,214,221",POL
216 - Alejandro Dumas-Horacio,6,216 ALEJANDRO DUMAS-HORACIO ,18,OPN,11510,216,-99.195746,19.433419,"BIKE,TPV",S/N,"210,222",POL
217 - Euler-Horacio,22,217 EULER-AV. HORACIO ,14,OPN,11510,217,-99.183605,19.432888,"BIKE,TPV",S/N,"207,225,226",POL
218 - Hegel-Ibarbourou,21,218 HEGEL-IBARBOUROU ,3,OPN,11510,218,-99.188033,19.432451,BIKE,S/N,"211,212,224",POL
219 - Esopo-FC de Cuernavaca,35,219 ESOPO-FC DE CUERNAVACA,0,OPN,11510,219,-99.207808,19.433542,BIKE,S/N,"213,220,227",POL
220 - Plino-Presidente Masaryk,24,220 PLINIO-PRESIDENTE MASARYK ,0,OPN,11510,220,-99.205727,19.432655,BIKE,S/N,"213,219,227",POL
221 - Emilio Castelar-Presidente Masaryk,23,221 EMILIO CASTELAR-PRESIDENTE MASARYK ,1,OPN,11510,221,-99.201565,19.431799,"BIKE,TPV",S/N,"215,230,231",POL
222 - Alejandro Dumas-Presidente Masarik,14,222 ALEJANDRO DUMAS-PRESIDENTE MASARYK,16,OPN,11510,222,-99.195774,19.431417,BIKE,S/N,"216,231,233",POL
223 - Newton-Presidente Masarik,1,223 NEWTON-PRESIDENTE MASARYK ,29,OPN,,223,-99.191613,19.431242,"BIKE,TPV",S/N,"222,224,231",POL
224 - Hegel-Presidente Masaryk,3,224 HEGEL-PRESIDENTE MASARYK,18,OPN,11510,224,-99.188065,19.431255,BIKE,S/N,"212,218,225",POL
225 - Petrarca-Presidente Masaryk,13,225 PETRARCA-PRESIDENTE MASARYK,11,OPN,11510,225,-99.185612,19.431172,BIKE,S/N,"224,226,232",POL
226 - Wallon-Presidente Masaryk,23,226 WALLON-PRESIDENTE MASARYK,3,OPN,11511,226,-99.18222,19.431033,BIKE,S/N,"217,239,247",POL
227 - Campos Elíseos-Periférico,24,227 CAMPOS ELÍSEOS-PERIFÉRICO,0,OPN,,227,-99.207373,19.431791,BIKE,S/N,"213,219,220",1
228 - Campos Elíseos-Jean de La fontaine,21,228 CAMPOS ELÍSEOS-JEAN DE LA FONTAINE,0,OPN,11510,228,-99.19912,19.427705,"BIKE,TPV",S/N,"230,233,235",POL
229 - Dickens-Seneca,20,229 DICKENS-SENECA,0,OPN,11510,229,-99.203331,19.430515,BIKE,S/N,"221,235,236",POL
230 - Edgar Alan Poe-Dickens,18,230 EDGAR ALAN POE-DICKENS,0,OPN,11510,230,-99.200074,19.430098,BIKE,S/N,"221,235,236",POL
231 - Newton-Aristoteles,21,231 NEWTON-ARISTOTELES ,6,OPN,11510,231,-99.19349,19.42977,BIKE,S/N,"222,223,234",POL
232 - Taine -  Rubén Darío,3,232 TAINE-RUBEN DARÍO ,27,OPN,,232,-99.185389,19.42894,BIKE,S/N,"224,225,226",1
233 - Julio Verne-Luis G. Urbina,4,233 JULIO VERNE-LUIS G. URBINA ,11,OPN,11510,233,-99.196965,19.429314,"BIKE,TPV",S/N,"222,230,231",POL
234 - Tres Picos-Arquímides,26,234 TRES PICOS-ARQUÍMIDES ,1,OPN,,234,-99.191539,19.42783,BIKE,S/N,"192,193,231",1
235 - Campos Eliseos-Moliere,16,235 CAMPOS ELISEOS-MOLIERE ,11,OPN,,235,-99.20218,19.42933,BIKE,S/N,"229,230,236",POL
236 - Campos Eliseos-Moliere,15,236 CAMPOS ELISEOS-MOLIERE ,14,OPN,,236,-99.20243,19.42944,BIKE,S/N,"229,230,235",POL
237 - Andrés Bello-Elliot,10,237 ANDRÉS BELLO-ELLIOT ,20,OPN,,237,-99.193986,19.426744,"BIKE,TPV",S/N,"193,234,238",1
238 - Andrés Bello-Elliot,17,238 ANDRÉS BELLO-ELLIOT ,12,OPN,,238,-99.193752,19.426765,BIKE,S/N,"193,234,237",1
239 - Rincon del Bosque-Ruben Dario,21,239 RINCON DEL BOSQUE-RUBEN DARÍO ,0,OPN,11510,239,-99.181355,19.430153,BIKE,S/N,"226,247,250",POL
204- Ejercito Nacional-F.C. de Cuernavaca,36,240 EJERCITO NACIONAL-F.C. DE CUERNAVACA ,0,OPN,,240,-99.2063,19.43855,"BIKE,TPV",S/N,"198,241",POL
241 - Ejercito Nacional-Juan Vazquez de la Mella,35,241 EJERCITO NAL-JUAN VAZQUEZ DE LA MELLA ,0,OPN,,241,-99.20758,19.43862,BIKE,S/N,"198,240",POL
242 - Miguel de Cervantes Saavedra-Pról. Moliere,29,242 MIGUEL DE CERVANTES SAAVEDRA-PROL MOLIERE ,0,OPN,11510,242,-99.20105,19.440344,BIKE,S/N,"198,199,243",GRA
243 - Miguel de Cervantes Saavedra-Lago Filt,21,243 MIGUEL DE CERVANTES SAAVEDRA-LAGO FILT ,6,OPN,11510,243,-99.196712,19.440839,BIKE,S/N,"199,242,244",1
244 - Miguel de Cervantes Saavedra-Lago Victoria,9,244 MIGUEL DE CERVANTES SAAVEDRA-LAGO VICTORIA ,9,OPN,11510,244,-99.193315,19.440885,BIKE,S/N,"196,243,245",GRA
245 - Lago Onega-Av. Ejército Nacional,24,245 LAGO ONEGA-AV. EJERCITO NACIONAL ,0,OPN,11510,245,-99.190368,19.438165,BIKE,S/N,"196,200,201",GRA
246 - Leibnitz-Thiers,15,246 LEIBNITZ-THIERS,0,OPN,11510,246,-99.179835,19.434147,BIKE,S/N,"207,247,248",2
247 - Herschel-Rousseau,12,247 HERSCHEL-ROUSSEAU ,17,OPN,11510,247,-99.180565,19.432102,BIKE,S/N,"226,239,246",2
248 - Shakespeare-Lafayette,9,248 SHAKESPEARE-LAFAYETTE ,18,OPN,11510,248,-99.177399,19.43175,BIKE,S/N,"246,247,249",1
249 - Shakespeare-Darwin,2,249 SHAKESPEARE-DARWIN ,16,OPN,11510,249,-99.177569,19.429877,BIKE,S/N,"248,250,251",2
250 - Darwin-Mariano Escobedo,21,250 DARWIN-MARIANO ESCOBEDO ,6,OPN,11510,250,-99.17966,19.429057,"BIKE,TPV",S/N,"239,249,252",1
251 - Goethe-Darwin,2,251 GOETHE-DARWIN ,16,OPN,11510,251,-99.17538,19.429261,BIKE,S/N,"248,249,252",2
252 - Víctor Hugo-Shakespeare,3,252 VICTOR HUGO-SHAKESPEARE ,15,OPN,11510,252,-99.17702,19.427575,BIKE,S/N,"249,251,253",2
253 - Dante-Tolstoi,2,253 DANTE-TOLSTOI ,19,OPN,11510,253,-99.177924,19.425835,"BIKE,TPV",S/N,"195,252,261",1
254 - Alfonso Herrera-Miguel Shultz,10,254 ALFONSO HERRERA-MIGUEL SHULTZ ,20,OPN,,254,-99.16007,19.43935,BIKE,S/N,"160,174,256",S-R
255-Jose Rosas Moreno-Guillermo Prieto,31,255 JOSE ROSAS MORENO-GUILLERMO PRIETO ,5,OPN,,255,-99.161808,19.437159,BIKE,S/N,"160,183,257",1
256 - Gómez Farías Sadi Carnot,19,256 GÓMEZ FARÍAS-SADI CARNOT ,8,OPN,,256,-99.15816,19.4372,BIKE,S/N,"254,259",S-R
257 - Manuel Maria Contreras-Villalongin,21,257 MANUEL MARIA CONTRERAS-VILLALONGIN ,0,OPN,,257,-99.16622,19.4338,BIKE,S/N,"183,255",S-R
258 - Circuito Interior-Juan Escutia,17,258 CIRCUITO INTERIOR-JUAN ESCUTIA ,13,OPN,,258,-99.1791,19.4167,BIKE,S/N,"36,49,53",CON
259 - Tómas Alva Edison-Ponciano Arriaga,15,259 TÓMAS ALVA EDISON-PONCIANO ARRIAGA ,8,OPN,,259,-99.15468,19.43757,BIKE,S/N,256,1
260 - Av. Juárez-Balderas,9,260 AV JUAREZ-BALDERAS ,15,OPN,,260,-99.147742,19.435354,BIKE,S/N,"29,41,43",CEN
261 Paseo de la Reforma-Río Ródano,21,261 PASEO DE LA REFORMA-RÍO RÓDANO ,9,OPN,,261,-99.175196,19.423704,BIKE,S/N,"195,252,253",1
262 - Republica de Cuba-Republica de Brasil,30,262 REPUBLICA DE CUBA-REPUBLICA DE BRASIL ,3,OPN,,262,-99.13395,19.43693,"BIKE,TPV",S/N,"91,92,93",CEN
263 - Sadi Carnot - Gómez Farias,24,263 SADI CARNOT-GÓMEZ FARIAS ,6,OPN,,263,-99.158425,19.436274,"BIKE,TPV",S/N,"85,86,256",S-R
264 - H. Ferrocarrileros - Jesús Garcia ,36,264 HÉROES FERROCARRILEROS-AV. CENTRAL,0,OPN,,264,-99.152935,19.440985,BIKE,S/N,"265,266,268",1
265 - Jesús Garcia-Héroes Ferrocarrileros,34,265 HÉROES FERROCARRILEROS-JESÚS GARCIA,2,OPN,,265,-99.152265,19.440839,"BIKE,TPV",S/N,"264,275",1
266 - Av. Jesús Garcia -  Carlos J. Meneses,22,266 AV. JESÚS GARCIA-CARLOS J. MENESES ,14,OPN,,266,-99.152187,19.444031,"BIKE,TPV",S/N,"267,268,269",BUE
267 - Carlos J. Meneses - Av. jesús García,30,267 AV. JESÜS GARCÏA-CARLOS J. MENESES,6,OPN,,267,-99.152203,19.443735,BIKE,S/N,"176,266,271",BUE
268 Luis Donaldo Colosio - Av. Jesus Garcia,10,268 LUIS DONALDO COLOSIO-AV.JESÚS GARCÍA ,26,OPN,,268,-99.151586,19.442448,BIKE,S/N,"176,269,273",BUE
269 Luis Donaldo Colosio - Aldama,34,269 LUIS DONALDO COLOSIO-ALDAMA ,2,OPN,,269,-99.151658,19.442467,BIKE,S/N,"176,268,273",BUE
270 - De la Republica-Ponciano Arriaga,23,270 DE LA REPUBLICA-PONCIANO ARRIAGA ,13,OPN,,270,-99.15387,19.43676,"BIKE,TPV",S/N,270,TAB
271 Av. Jesús García - J. Meneses,28,271 AV. CENTRAL-J. MENESES ,8,OPN,,271,-99.152465,19.442689,BIKE,S/N,"266,267,272",1
271 Av. Jesus Garcia - J. Meneses,35,272 AV. CENTRAL-J. MENESES ,1,OPN,,272,-99.152491,19.443467,BIKE,S/N,"266,267,271",BUE
273 Luis Donaldo Colosio - Av. Jesus Garcia,33,273 LUIS DONALDO COLOSIO-AV. CENTRAL,3,OPN,,273,-99.152956,19.442707,BIKE,S/N,"176,268,274",1
274 Luis Donaldo Colosio - Av. Insurgentes Norte,20,274 LUIS DONALDO COLOSIO-AV INSURGENTES NORTE ,16,OPN,,274,-99.153289,19.442772,BIKE,S/N,"176,268,273",BUE
275 Héroes Ferrocarrileros - Av. Jesús García,36,275 HÉROES FERROCARRILEROS-AV. INSURGENTES NORTE,0,OPN,,275,-99.153164,19.441062,BIKE,S/N,"264,265",BUE
276 - Anaxágoras-Obrero Mundial,15,276 ANAXÁGORAS-OBRERO MUNDIAL,14,OPN,3020,276,-99.156366,19.401986,BIKE,S/N,"277,280,281",NAR
277 - Ampliación Tonalá-Obrero Mundial,19,277 AMPLIACIÓN TONALÁ-OBRERO MUNDIAL,8,OPN,3020,277,-99.15909,19.401807,BIKE,S/N,"165,276,280",1
278 - Mier Y Pesado-Obrero Mundial,19,278 MIER Y PESADO-OBRERO MUNDIAL,2,OPN,3103,278,-99.163831,19.40071,BIKE,S/N,"164,279,282",1
279 - La Morena-Providencia,28,279 LA MORENA-PROVIDENCIA,2,OPN,3103,279,-99.166553,19.399908,BIKE,S/N,"164,278,282",DVN
280 - Anaxágoras-Obrero Mundial,25,280 ANAXÁGORAS-OBRERO MUNDIAL,11,OPN,3020,280,-99.156406,19.4015,"BIKE,TPV",S/N,"276,277,281",NAR
281 - Pitágoras-La Morena,25,281 PITÁGORAS-LA MORENA,5,OPN,3020,281,-99.157308,19.398532,BIKE,S/N,"276,280,295",NAR
282 - La Morena-Eje 2 Poniente Gabriel Mancera,10,282 LA MORENA-EJE 2 PONIENTE GABRIEL MANCERA,8,OPN,3103,282,-99.161273,19.398692,BIKE,S/N,"278,293,294",DVN
283 - Av. Coyoacán-Rafael Donde,15,283 AV. COYOACÁN-RAFAEL DONDE,6,OPN,3103,283,-99.167383,19.39827,BIKE,S/N,"279,292,293",1
284 - Dakota-Vermont,26,284 DAKOTA-VERMONT,7,OPN,3810,284,-99.172981,19.397693,BIKE,S/N,"289,290,291",NAP
285 - 12 De Octubre-Mineria,14,285 12 DE OCTUBRE-MINERIA,4,OPN,11800,285,-99.177524,19.399688,BIKE,S/N,"171,173,286",ESC
286 - 13 De Septiembre-Avenida Patriotismo,20,286 13 DE SEPTIEMBRE-AVENIDA PATRIOTISMO,1,OPN,11800,286,-99.179943,19.399201,BIKE,S/N,"171,285,287",ESC
287 - 13 De Septiembre-Puente De La Morena,15,287 13 DE SEPTIEMBRE-PUENTE DE LA MORENA,6,OPN,11800,287,-99.183254,19.398946,BIKE,S/N,"286,288,311",ESC
288 - 11 De Abril-Avenida 2,9,288 11 DE ABRIL-AVENIDA 2,9,OPN,3800,288,-99.183575,19.396333,BIKE,S/N,"287,310,311",1
289 - Chicago-Yosemite,15,289 CHICAGO-YOSEMITE,3,OPN,3810,289,-99.174548,19.397308,BIKE,S/N,"284,290,304",NAP
290 - Yosemite-Colorado,26,290 YOSEMITE-COLORADO,1,OPN,3810,290,-99.172667,19.396333,BIKE,S/N,"284,289,303",NAP
291 - Magdalena-División Del Norte,22,291 MAGDALENA-DIVISIÓN DEL NORTE,5,OPN,3103,291,-99.169946,19.397651,BIKE,S/N,"283,284,290",DVN
292 - Adolfo Prieto-Eje 4 Sur Xola,33,292 ADOLFO PRIETO-EJE 4 SUR XOLA,3,OPN,3103,292,-99.166264,19.396917,BIKE,S/N,"283,293,299",DVN
293 - Mier Y Pesado-Eje 4 Sur Xola,33,293 MIER Y PESADO-EJE 4 SUR XOLA,3,OPN,3103,293,-99.164598,19.397373,"BIKE,TPV",S/N,"283,292,294",DVN
294 - Nicolás San Juan-Eje 4 Sur Xola,19,294 NICOLÁS SAN JUAN-EJE 4 SUR XOLA,5,OPN,3020,294,-99.160924,19.396513,BIKE,S/N,"282,295,298",NAR
295 - Anaxágoras-Eje 4 Sur Xola,0,295 ANAXÁGORAS-EJE 4 SUR XOLA,36,OPN,3020,295,-99.156871,19.396328,"BIKE,TPV",S/N,"281,296,297",NAR
296 - Diagonal San Antonio-Enrique Rébsamen,23,296 DIAGONAL SAN ANTONIO-ENRIQUE RÉBSAMEN,4,OPN,3020,296,-99.158756,19.394283,BIKE,S/N,"295,297,320",NAR
297 - Diagonal San Antonio-Enrique Rébsamen,26,297 DIAGONAL SAN ANTONIO-ENRIQUE RÉBSAMEN,7,OPN,3020,297,-99.158907,19.394412,BIKE,S/N,"295,296,320",NAR
298 - Romero De Terreros-Gabriel Mancera,14,298 ROMERO DE TERREROS-GABRIEL MANCERA,7,OPN,3103,298,-99.16214,19.394073,BIKE,S/N,"294,318,319",DVN
299 - Romero De Terreros-Mier Y Pesado,8,299 ROMERO DE TERREROS-MIER Y PESADO,16,OPN,3103,299,-99.165054,19.394601,BIKE,S/N,"292,298,318",DVN
300 - Providencia -Luz Saviñon,20,300 PROVIDENCIA -LUZ SAVIÑON,1,OPN,3103,300,-99.168333,19.393268,BIKE,S/N,"301,302,317",DVN
301 - Luz Saviñón-Magdalena,24,301 LUZ SAVIÑÓN-MAGDALENA,0,OPN,3103,301,-99.171133,19.393807,BIKE,S/N,"300,302,316",DVN
302 - Luz Saviñon-Magdalena,36,302 LUZ SAVIÑON-MAGDALENA,0,OPN,3103,302,-99.171466,19.393832,BIKE,S/N,"301,303,304",DVN
303 - Montesito-Av. Insurgentes,27,303 MONTESITO-AV. INSURGENTES,0,OPN,3810,303,-99.173025,19.394842,"BIKE,TPV",S/N,"301,302,304",NAP
304 - Montesito-Dakota,32,304 MONTESITO-DAKOTA,0,OPN,3810,304,-99.173821,19.395043,BIKE,S/N,"290,303,305",NAP
305 - Avenida Del Parque-Arizona,34,305 AVENIDA DEL PARQUE-ARIZONA,2,OPN,3810,305,-99.175531,19.394693,"BIKE,TPV",S/N,"304,306,307",1
306 - Dakota-Filadelfia,31,306 DAKOTA-FILADELFIA,5,OPN,3810,306,-99.175664,19.393699,"BIKE,TPV",S/N,"305,307,308",NAP
307 - Minesota-Dakota,24,307 MINESOTA-DAKOTA,3,OPN,3810,307,-99.175834,19.393701,BIKE,S/N,"305,306,308",NAP
308 - Nueva York-Arizona,23,308 NUEVA YORK-ARIZONA,7,OPN,3810,308,-99.178072,19.393594,BIKE,S/N,"306,307,309",1
309 - Pennsylvania-Arizona,22,309 PENNSYLVANIA-ARIZONA,5,OPN,3810,309,-99.17956,19.393162,BIKE,S/N,"308,310,313",NAP
310 - Calle 1-Av. Patriotismo,15,310 CALLE 1-AV. PATRIOTISMO,0,OPN,3800,310,-99.181733,19.395319,BIKE,S/N,"309,311,312",1
311 - Calle 5-Avenida Revolución,8,311 CALLE 5-AVENIDA REVOLUCIÓN,10,OPN,3800,311,-99.185391,19.393665,BIKE,S/N,"310,312,328",1
312 - Avenida 2-Calle 7,24,312 AVENIDA 2-CALLE 7,3,OPN,3800,312,-99.183737,19.392634,"BIKE,TPV",S/N,"310,311,328",SPP
313 - Pennsylvania-Oklahoma,18,313 PENNSYLVANIA-OKLAHOMA,6,OPN,3810,313,-99.178989,19.391431,BIKE,S/N,"308,309,314",1
314 - Nuerva York-Louisiana,18,314 NUERVA YORK-LOUISIANA,3,OPN,3810,314,-99.177331,19.391647,BIKE,S/N,"307,313,327",NAP
315 - Alabama-Montana,20,315 ALABAMA-MONTANA,1,OPN,3810,315,-99.1736,19.391472,BIKE,S/N,"301,302,316",NAP
316 - San Francisco-Concepción Beistegui,14,316 SAN FRANCISCO-CONCEPCIÓN BEISTEGUI,12,OPN,3103,316,-99.1712,19.391056,BIKE,S/N,"301,302,315",DVN
317 - Avenida Coyoacán-Torres Adalid,35,317 AVENIDA COYOACÁN-TORRES ADALID,1,OPN,3103,317,-99.166157,19.391456,"BIKE,TPV",S/N,"299,300,318",DVN
318 - Luz Saviñón-Amores,13,318 LUZ SAVIÑÓN-AMORES,8,OPN,3103,318,-99.164127,19.392249,BIKE,S/N,"299,317,319",DVN
319 - Diagonal San Antonio-Luz Saviñon,25,319 DIAGONAL SAN ANTONIO-LUZ SAVIÑON,2,OPN,3103,319,-99.162684,19.391991,BIKE,S/N,"298,318,320",DVN
320 - Enrique Rébsamen-Luz Saviñon,15,320 ENRIQUE RÉBSAMEN-LUZ SAVIÑON,3,OPN,3020,320,-99.15936,19.391323,BIKE,S/N,"296,297,319",NAR
321 - Torres Adalid-Anaxágoras,19,321 TORRES ADALID-ANAXÁGORAS,5,OPN,3020,321,-99.157513,19.389477,BIKE,S/N,"320,322,340",1
322 - Heriberto Frías-Concepción Beistegui,16,322 HERIBERTO FRÍAS-CONCEPCIÓN BEISTEGUI,11,OPN,3020,322,-99.160616,19.388528,BIKE,S/N,"321,323,339",1
323 - Concepción Beistegui-Gabriel Mancera,22,323 CONCEPCIÓN BEISTEGUI-GABRIEL MANCERA,2,OPN,3103,323,-99.163403,19.389026,BIKE,S/N,"319,322,324",DVN
324 - Amores-Avenida Eugenia,12,324 AMORES-AVENIDA EUGENIA,6,OPN,3100,324,-99.1656554,19.3872468,BIKE,S/N,"323,336,337",DVC
325 - Providencia -Avenida Del Valle,24,325 PROVIDENCIA -AVENIDA DEL VALLE,0,OPN,3100,325,-99.1696894,19.3881779,BIKE,S/N,"316,335,336",1
326 - Eugenia-Nebraska,35,326 EUGENIA-NEBRASKA,1,OPN,3840,326,-99.174811,19.388978,BIKE,S/N,"327,334,335",AMN
327 - Georgia -Pennsylvania,28,327 GEORGIA -PENNSYLVANIA,2,OPN,3810,327,-99.17772,19.38885,BIKE,S/N,"313,314,326",NAP
328 - Avenida 1-Calle 7,8,328 AVENIDA 1-CALLE 7,19,OPN,3800,328,-99.184742,19.392586,BIKE,S/N,"311,312,329",SPP
329 - Calle 13-Avenida 1,9,329 CALLE 13-AVENIDA 1,15,OPN,3800,329,-99.184812,19.390306,BIKE,S/N,"312,328,330",SPP
330 - Calle 15-Avenida Patriotismo,12,330 CALLE 15-AVENIDA PATRIOTISMO,6,OPN,3800,330,-99.182606,19.389358,BIKE,S/N,"329,331,332",SPP
331 - Avenida 2-Calle 17,21,331 AVENIDA 2-CALLE 17,6,OPN,3800,331,-99.183971,19.388547,BIKE,S/N,"329,330,332",SPP
332 - Sur De Calle 27-Avenida 3,18,332 SUR DE CALLE 27-AVENIDA 3,6,OPN,3800,332,-99.183809,19.385508,BIKE,S/N,"330,331,333",SPP
333 - Georgia -Carolina,14,333 GEORGIA -CAROLINA,7,OPN,3810,333,-99.180978,19.387624,BIKE,S/N,"330,332,349",NAP
334 - Nuerva York-Av. Insurgentes,36,334 NUEVA YORK-AV. INSURGENTES,0,OPN,3840,334,-99.175089,19.386568,BIKE,S/N,"326,335,346",AMN
335 - Magdalena-Ameyalco,33,335 MAGDALENA-AMEYALCO,0,OPN,3100,335,-99.173504,19.387003,BIKE,S/N,"326,334,346",DVC
336 - San Borja-Cda. Bartoloche,18,336 SAN BORJA-CDA. BARTOLOCHE,3,OPN,3100,336,-99.169673,19.385531,BIKE,S/N,"325,337,345",DVC
337 - San Borja-Martín Menlalde,20,337 SAN BORJA-MARTÍN MENLALDE,1,OPN,3100,337,-99.16704,19.384849,"BIKE,TPV",S/N,"324,336,338",DVC
338 - Nicolas San Juan-San Borja,18,338 NICOLAS SAN JUAN-SAN BORJA,3,OPN,3100,338,-99.163273,19.384249,BIKE,S/N,"324,336,337",DVC
339 - Enrique Rébsamen-Avenida Eugenia,20,339 ENRIQUE RÉBSAMEN-AVENIDA EUGENIA,1,OPN,3020,339,-99.160548,19.386032,BIKE,S/N,"322,340,343",NAR
340 - Anaxágoras-Avenida Eugenia,23,340 ANAXÁGORAS-AVENIDA EUGENIA,7,OPN,3020,340,-99.158188,19.385571,"BIKE,TPV",S/N,"339,341,343",NAR
341 - San Borja-Avenida Cuauhtemoc,15,341 SAN BORJA-AVENIDA CUAUHTEMOC,15,OPN,3020,341,-99.158204,19.382851,BIKE,S/N,"340,343,364",NAR
342 - Anaxágoras-Angel Urraza Eje 6 Sur,18,342 ANAXÁGORAS-ANGEL URRAZA EJE 6 SUR,18,OPN,3020,342,-99.159455,19.381076,BIKE,S/N,"341,344,359",NAR
343 - Enrique Rébsamen-División Del Norte,17,343 ENRIQUE RÉBSAMEN-DIVISIÓN DEL NORTE,0,OPN,3100,343,-99.160826,19.384099,BIKE,S/N,"338,341,344",DVC
344 - Heriberto Frías-Angel Urraza Eje 6 Sur,24,344 HERIBERTO FRÍAS-ANGEL URRAZA EJE 6 SUR,3,OPN,3100,344,-99.162243,19.382107,BIKE,S/N,"338,343,358",DVC
345 - Miraflores-Patricio Sanz,6,345 MIRAFLORES-PATRICIO SANZ,15,OPN,3100,345,-99.172223,19.384498,BIKE,S/N,"334,335,346",ISB
346 - San Francisco-Santa Margarita,24,346 SAN FRANCISCO-SANTA MARGARITA,0,OPN,3100,346,-99.174077,19.385019,BIKE,S/N,"334,335,345",ISB
347 - Pennsylvania-Maximino Avila Camacho,26,347 PENNSYLVANIA-MAXIMINO AVILA CAMACHO,1,OPN,3710,347,-99.176097,19.384378,"BIKE,TPV",S/N,"334,346,348",1
348 - Indiana-Avenida San Antonio,11,348 INDIANA-AVENIDA SAN ANTONIO,7,OPN,3710,348,-99.178216,19.385365,BIKE,S/N,"347,349,350",CDD
349 - Augusto Rodin-Avenida San Antonio,17,349 AUGUSTO RODIN-AVENIDA SAN ANTONIO,4,OPN,3840,349,-99.180857,19.385688,BIKE,S/N,"332,348,350",AMN
350 - Jose Clemente Orozco-Correggio,16,350 JOSE CLEMENTE OROZCO-CORREGGIO,13,OPN,3710,350,-99.181482,19.384062,BIKE,S/N,"349,352",1
351 - Calle 27-Avenida Revolución,3,351 CALLE 27-AVENIDA REVOLUCIÓN,15,OPN,3800,351,-99.186297,19.385751,BIKE,S/N,"332,352,364",SPP
352 - Tintoreto-Giorgine,21,352 TINTORETO-GIORGINE,9,OPN,3700,352,-99.185447,19.384114,"BIKE,TPV",S/N,"351,364,365",SMN
353 - Carolina-Holbein,21,353 CAROLINA-HOLBEIN,6,OPN,3710,353,-99.178808,19.382168,"BIKE,TPV",S/N,"354,361,362",CDD
354 - Boston-Av. Insurgentes,22,354 BOSTON-AV. INSURGENTES,0,OPN,3720,354,-99.176685,19.381665,BIKE,S/N,"353,361,369",NBU
355 - California-Sacramento,7,355 CALIFORNIA-SACRAMENTO,14,OPN,3100,355,-99.173291,19.38205,BIKE,S/N,"345,361",ISB
356 - Matias Romero -Adolfo Prieto,14,356 MATIAS ROMERO -ADOLFO PRIETO,4,OPN,3100,356,-99.170171,19.381292,BIKE,S/N,"355,357,372",1
357 - Matias Romero -Amores,10,357 MATIAS ROMERO -AMORES,13,OPN,3100,357,-99.1669248,19.380598,BIKE,S/N,"356,358,373",DVC
358 - Nicolas San Juan-Matias Romero,18,358 NICOLAS SAN JUAN-MATIAS ROMERO ,5,OPN,3100,358,-99.164222,19.380168,BIKE,S/N,"357,360,373",DVC
359 - Matias Romero -Pestallozzi,30,359 MATIAS ROMERO -PESTALLOZZI,3,OPN,3100,359,-99.161169,19.379269,"BIKE,TPV",S/N,"342,360,374",DVC
360 - Heriberto Frías-Matias Romero,26,360 HERIBERTO FRÍAS-MATIAS ROMERO,1,OPN,3100,360,-99.1628259,19.3790279,BIKE,S/N,"358,359,374",DVC
361 - Porfirio Díaz-Av. Insurgentes,22,361 PORFIRIO DÍAZ-AV. INSURGENTES,5,OPN,3100,361,-99.1762233,19.3804457,BIKE,S/N,"354,369,370",1
362 - Augusto Rodin-Alberto Balderas,18,362 AUGUSTO RODIN-ALBERTO BALDERAS,3,OPN,3710,362,-99.181043,19.382207,BIKE,S/N,"367,368",CDD
363 - Holbein-Paulo Ucello,18,363 HOLBEIN-PAULO UCELLO,3,OPN,3710,363,-99.183851,19.380813,BIKE,S/N,"362,365,367",CDD
364 - Botichelli-Cda. De Giorgone,26,364 BOTICHELLI-CDA. DE GIORGONE,1,OPN,3700,364,-99.185858,19.383063,BIKE,S/N,"351,352,365",SMN
365 - Holbein-Avenida Revolución,9,365 HOLBEIN-AVENIDA REVOLUCIÓN,9,OPN,3700,365,-99.186687,19.381117,BIKE,S/N,"352,363,364",SMN
366 - Porfirio Díaz-Augusto Rodín,18,366 PORFIRIO DÍAZ-AUGUSTO RODÍN,6,OPN,3740,366,-99.181973,19.378345,BIKE,S/N,"362,367,368",EXI
367 - Boston -Augusto Rodín,20,367 BOSTON -AUGUSTO RODÍN,1,OPN,3720,367,-99.181632,19.37946,BIKE,S/N,"362,363,366",NBU
368 - Porfirio Díaz-Cincinatti,20,368 PORFIRIO DÍAZ-CINCINATTI ,4,OPN,3740,368,-99.179344,19.379246,BIKE,S/N,"366,367,369",1
369 - Porfirio Díaz-Av. Insurgentes,19,369 PORFIRIO DÍAZ-AV. INSURGENTES,17,OPN,3740,369,-99.177478,19.379884,"BIKE,TPV",S/N,"367,368",1
370 - Tlacoquemecatl-Av. Insurgentes,30,370 TLACOQUEMECATL-AV. INSURGENTES,0,OPN,3200,370,-99.177054,19.378818,BIKE,S/N,"361,369,371",TLA
371 - Tlacoquemecatl-Capulin,21,371 TLACOQUEMECATL-CAPULIN,0,OPN,3200,371,-99.174328,19.378542,BIKE,S/N,"361,369,370",TLA
372 - Dr. Roberto Gayol-Tlacoquemecatl,18,372 DR. ROBERTO GAYOL-TLACOQUEMECATL,3,OPN,3104,372,-99.170289,19.37797,"BIKE,TPV",S/N,"373,378,379",1
373 - Pilares-Gabriel Mancera,14,373 PILARES-GABRIEL MANCERA,4,OPN,3100,373,-99.166663,19.377968,BIKE,S/N,"357,372,378",DVC
374 - Anaxágoras-Pilares,9,374 PITÁGORAS-PILARES,21,OPN,3100,374,-99.161116,19.376964,"BIKE,TPV",S/N,"359,375,376",DVC
375 - Tenayuca-División Del Norte,18,375 TENAYUCA-DIVISIÓN DEL NORTE,6,OPN,3650,375,-99.158818,19.376865,BIKE,S/N,"359,374,376",LEV
376 - Pitágoras-Av. Universidad,23,376 PITÁGORAS-AV. UNIVERSIDAD,4,OPN,3650,376,-99.161595,19.375442,BIKE,S/N,"374,375,377",LEV
377 - Heriberto Frías-Miguel Laurent,27,377 HERIBERTO FRÍAS-MIGUEL LAURENT,9,OPN,3104,377,-99.16375,19.375394,BIKE,S/N,"373,376,400",DVS
378 - Miguel Laurent-Amores,28,378 MIGUEL LAURENT-AMORES,2,OPN,3104,378,-99.168076,19.375823,BIKE,S/N,"372,373,379",DVS
379 - Dr. Roberto Gayol-Miguel Laurent,36,379 DR. ROBERTO GAYOL-MIGUEL LAURENT,0,OPN,3104,379,-99.17084,19.375751,BIKE,S/N,"378,380,395",1
380 - Moras-San Lorenzo,22,380 MORAS-SAN LORENZO,4,OPN,3200,380,-99.173512,19.374876,BIKE,S/N,"392,393,394",TLA
381 - San Lorenzo-Manzanas,23,381 SAN LORENZO-MANZANAS,3,OPN,3200,381,-99.177894,19.375541,BIKE,S/N,"382,387,389",TLA
382 - San Lorenzo-Av. Insurgentes,14,382 SAN LORENZO-AV. INSURGENTES,10,OPN, 3200 ,382,-99.178084,19.375591,BIKE,S/N,"381,387,389",TLA
383 - Luis Caracci-2da. Luis Caracci,1,383 LUIS CARACCI-2DA. LUIS CARACCI,14,OPN,3740,383,-99.181527,19.375764,BIKE,S/N,"366,382,387",EXI
384 - Empresa-Poussin,0,384 EMPRESA-POUSSIN,21,OPN,3920,384,-99.185583,19.375873,BIKE,S/N,"385,386,417",INM
385 - Poussin-Empresa,14,385 POUSSIN-EMPRESA,21,OPN,3920,385,-99.18558,19.375651,"BIKE,TPV",S/N,"384,386,417",INM
386 - Poussin-Donatello,16,386 POUSSIN-DONATELLO,20,OPN,3920,386,-99.185846,19.37484,BIKE,S/N,"384,385,417",INM
387 - Cadiz-Empresa,18,387 CADIZ-EMPRESA,0,OPN,3920,387,-99.180505555556,19.37455556,BIKE,S/N,"381,382,383",INM
388 - Valencia-Malaga,13,388 VALENCIA-MALAGA,8,OPN,3920,388,-99.181355,19.373038,BIKE,S/N,"387,389,390",INM
389 - Santander-Felix Cuevas,26,389 SANTANDER-FELIX CUEVAS,10,OPN,3920,389,-99.179356,19.373528,BIKE,S/N,"388,390,391",INM
390 - Oso-Felix Cuevas,22,390 OSO-FELIX CUEVAS,14,OPN,3104,390,-99.17826,19.373228,"BIKE,TPV",S/N,"389,391,416",DVS
391 - Oso-Felix Cuevas,25,391 OSO-FELIX CUEVAS,1,OPN,3104,391,-99.178283,19.373142,BIKE,S/N,"389,390,416",DVS
392 - Patricio Sanz-Felix Cuevas,15,392 PATRICIO SANZ-FELIX CUEVAS,6,OPN,3200,392,-99.1747749,19.3730067,BIKE,S/N,"380,393,394",TLA
393 - Adolfo Prieto-Felix Cuevas,28,393 ADOLFO PRIETO-FELIX CUEVAS,8,OPN,3200,393,-99.172558,19.372796,"BIKE,TPV",S/N,"380,392,394",TLA
394 - Dr. Roberto Gayol-Felix Cuevas,18,394 DR. ROBERTO GAYOL-FELIX CUEVAS,18,OPN,3104,394,-99.171592,19.372437,BIKE,S/N,"393,395,396",DVS
395 - San Lorenzo-Callejón Martín Menlalde,21,395 SAN LORENZO-CALLEJÓN MARTÍN MENLALDE,9,OPN,3104,395,-99.169814,19.373742,BIKE,S/N,"379,394,396",DVS
396 - Martín Menlalde-Felix Cuevas,2,396 MARTÍN MENLALDE-FELIX CUEVAS,19,OPN,3104,396,-99.170187,19.371554,BIKE,S/N,"394,395,413",DVS
397 - San Lorenzo-Gabriel Mancera,21,397 SAN LORENZO-GABRIEL MANCERA,8,OPN,3104,397,-99.167247,19.373194,BIKE,S/N,"398,399,400",DVS
398 - Sanchez Azcona-Felix Cuevas,9,398 SANCHEZ AZCONA-FELIX CUEVAS,18,OPN,3104,398,-99.16566,19.37103,BIKE,S/N,"397,399,400",DVS
399 - Heriberto Frías-San Lorenzo,27,399 HERIBERTO FRÍAS-SAN LORENZO,9,OPN,3104,399,-99.164519,19.372407,BIKE,S/N,"397,398,400",DVS
400 - San Lorenzo-Heriberto Frias,17,400 SAN LORENZO-HERIBERTO FRIAS,12,OPN,3104,400,-99.1642743,19.3726458,BIKE,S/N,"397,398,399",DVS
401 - San Lorenzo-Avenida Cuauhtemoc,28,401 SAN LORENZO-AVENIDA CUAUHTEMOC,5,OPN,3310,401,-99.16158,19.372147,BIKE,S/N,"400,402,403",SCA
402 - Uxmal-Municipio Libre,17,402 UXMAL-MUNICIPIO LIBRE,12,OPN,3310,402,-99.1587223,19.3709452,"BIKE,TPV",S/N,"401,403,405",1
403 - Uxmal-Municipio Libre,23,403 UXMAL-MUNICIPIO LIBRE,7,OPN,3310,403,-99.158639,19.371371,BIKE,S/N,"401,402,405",SCA
404 - Miguel Laurent-Avenida División Del Norte,20,404 MIGUEL LAURENT-AVENIDA DIVISIÓN DEL NORTE,10,OPN,3650,404,-99.157387,19.373813,BIKE,S/N,"402,403,405",LEV
405 - División Del Norte-Municipio Libre,26,405 DIVISIÓN DEL NORTE-MUNICIPIO LIBRE,4,OPN,3303,405,-99.156626,19.370619,BIKE,S/N,"402,403,404",PON
406 - Parroquia Av. Mexico-Coyoacan,17,406 PARROQUIA AV. MEXICO-COYOACAN,4,OPN,3310,406,-99.163261,19.367831,BIKE,S/N,"402,407,411",SCA
407 - Prolongación Xochicalco-General Emiliano Zapat,10,407 PROL. XOCHICALCO-GENERAL EMILIANO ZAPATA,11,OPN,3320,407,-99.158694,19.367294,BIKE,S/N,"406,408,410",REE
408 - Prolongación Petén-General Emiliano Zapata,14,408 PROLONGACIÓN PETÉN-GENERAL EMILIANO ZAPATA,13,OPN,3320,408,-99.156843,19.36677,BIKE,S/N,"407,409,410",REE
409 - Azores-División Del Norte,14,409 AZORES-DIVISIÓN DEL NORTE,10,OPN,3310,409,-99.155499,19.365102,BIKE,S/N,"408,410,430",SCA
410 - Prolongación Tajín-Prolongación Repúblicas,19,410 PROLONGACIÓN TAJÍN-PROLONGACIÓN REPÚBLICAS,5,OPN,3310,410,-99.158063,19.36564,BIKE,S/N,"407,408,409",SCA
411 - Parroquia-Avenida México-Coyoacan,32,411 PARROQUIA-AVENIDA MÉXICO-COYOACAN,4,OPN,3310,411,-99.163626,19.367864,BIKE,S/N,"412,425,427",SCA
412 - Parroquia-Avenida Universidad,22,412 PARROQUIA-AVENIDA UNIVERSIDAD,13,OPN,3310,412,-99.1654145,19.3684182,"BIKE,TPV",S/N,"411,425,426",SCA
413 - Parroquia-Avenida Coyoacán,27,413 PARROQUIA-AVENIDA COYOACÁN,9,OPN,3104,413,-99.171906,19.369782,BIKE,S/N,"396,414,424",DVS
414 - Parroquia-José Ignacio Bartolache,20,414 PARROQUIA-JOSÉ IGNACIO BARTOLACHE,10,OPN,3104,414,-99.173712,19.370187,BIKE,S/N,"413,415,423",DVS
415 - San Francisco-Parroquía,27,415 SAN FRANCISCO-PARROQUÍA,3,OPN,3104,415,-99.17602,19.371498,BIKE,S/N,"391,414,416",DVS
416 - Recreo-Parroquía,11,416 RECREO-PARROQUÍA,18,OPN,3104,416,-99.177607,19.371308,BIKE,S/N,"390,391,415",1
417 - Goya-Augusto Rodín,28,417 GOYA-AUGUSTO RODÍN,2,OPN,3920,417,-99.184333,19.373262,"BIKE,TPV",S/N,"384,385,386",INM
418 - Galicia-Actipan,30,418 GALICIA-ACTIPAN,6,OPN,3920,418,-99.183034,19.371152,BIKE,S/N,"388,417,419",INM
419 - Actipan-Cadiz,30,419 ACTIPAN-CADIZ,0,OPN,3920,419,-99.181502,19.370606,BIKE,S/N,"418,420,421",INM
420 - María Luz Bringas-Oso,25,420 MARÍA LUZ BRINGAS-OSO,2,OPN,3230,420,-99.17964,19.369723,BIKE,S/N,"418,419,421",ACT
421 - María Luz Bringas-Oso,27,421 MARÍA LUZ BRINGAS-OSO,2,OPN,3230,421,-99.179401,19.369467,BIKE,S/N,"419,420,422",ACT
422 - Bufalo-José María Rico (Eje 8),16,422 BUFALO-JOSÉ MARÍA RICO (EJE 8),5,OPN,3230,422,-99.177487,19.368356,BIKE,S/N,"421,423,436",ACT
423 - Moras-José María Rico (Eje 8),17,423 MORAS-JOSÉ MARÍA RICO (EJE 8),7,OPN,3240,423,-99.175342,19.367631,BIKE,S/N,"422,436,437",ACA
424 - Amores-José María Rico (Eje 8),11,424 AMORES-JOSÉ MARÍA RICO (EJE 8),4,OPN,3104,424,-99.170531,19.367208,BIKE,S/N,"413,425,435",DVS
425 - Nicolas San Juan-Avenida Universidad,28,425 NICOLAS SAN JUAN-AVENIDA UNIVERSIDAD,8,OPN,3104,425,-99.16741,19.367087,BIKE,S/N,"411,412,426",DVS
426 - Cerrada De Popocatepetl-Av. Popocatepetl (Eje,32,426 CERRADA DE POPOCATEPETL-AV. POPOCATEPETL (EJE ,3,OPN,3330,426,-99.166017,19.365519,BIKE,S/N,"411,412,425",XOC
427 - Avenida México-Coyoacan-Av. Popocatepetl (Eje,8,427 AVENIDA MÉXICO-COYOACAN-AV. POPOCATEPETL (EJE ,13,OPN,3310,427,-99.162993,19.365023,BIKE,S/N,"411,412,426",SCA
428 - Prolongación Uxmal-Av. Popocatepetl (Eje 8),20,428 PROLONGACIÓN UXMAL-AV. POPOCATEPETL (EJE 8),7,OPN,3340,428,-99.160353,19.363418,BIKE,S/N,"427,430,431",GPM
429 - Pirineos-Av. Popocatepetl (Eje 8),4,429 PIRINEOS-AV. POPOCATEPETL (EJE 8),17,OPN,3310,429,-99.158292,19.363071,BIKE,S/N,"428,430,431",SCA
430 - Tripoli-Av. Popocatepetl (Eje 8),10,430 TRIPOLI-AV. POPOCATEPETL (EJE 8),20,OPN,3310,430,-99.154974,19.362139,BIKE,S/N,"409,429,431",SCA
431 - Bruno Traven-Paz Montes De Oca,13,431 BRUNO TRAVEN-PAZ MONTES DE OCA,8,OPN,3340,431,-99.15822,19.36145,BIKE,S/N,"428,429,430",GPM
432 - Carrillo Pto-Golondrinas,34,432 CARRILLO PUERTO-AV. MÉXICO-COYOACÁN,2,OPN,3340,432,-99.162581,19.361296,BIKE,S/N,"442,443,444",GPM
433 - Jose María Olloqui-Lopéz Costilla,16,433 JOSE MARÍA OLLOQUI-LOPÉZ COSTILLA,5,OPN,3104,433,-99.170819,19.363558,BIKE,S/N,"434,435,439",DVS
434 - Jose María Olloqui-Amores,20,434 JOSE MARÍA OLLOQUI-AMORES,7,OPN,3104,434,-99.171498,19.363776,"BIKE,TPV",S/N,"433,435,439",DVS
435 - Rodriguez Saro-Avenida Coyoacán,35,435 RODRIGUEZ SARO-AVENIDA COYOACÁN,1,OPN,3230,435,-99.172906,19.365154,BIKE,S/N,"433,434,438",ACT
436 - Rodriguez Saro-Bufallo,20,436 RODRIGUEZ SARO-BUFALLO,10,OPN,3240,436,-99.177819,19.366217,BIKE,S/N,"422,423,437",ACA
437 - Moras-Comunal,21,437 MORAS-COMUNAL,0,OPN,3240,437,-99.17602222,19.36480833,BIKE,S/N,"423,436,438",1
438 - Adolfo Prieto-José María Olloqui,15,438 ADOLFO PRIETO-JOSÉ MARÍA OLLOQUI,9,OPN,3240,438,-99.17458333,19.36479722,BIKE,S/N,"434,435,437",1
439 - Amores-Avenida Coyoacán,14,439 AMORES-AVENIDA COYOACÁN,4,OPN,3240,439,-99.17246667,19.36218889,BIKE,S/N,"433,434,438",ACA
440 - Real De Mayorazgo-Puente Xoco,24,440 REAL DE MAYORAZGO-PUENTE XOCO,12,OPN,3330,440,-99.168669,19.36065,BIKE,S/N,"433,439,441",1
441 - Puente Xoco-Real De Mayorazgo,29,441 PUENTE XOCO-REAL DE MAYORAZGO,7,OPN,3330,441,-99.167527,19.361215,BIKE,S/N,"433,440,442",XOC
442 - Real De Mayorazgo-Avenida México-Coyoacan,18,442 REAL DE MAYORAZGO-AVENIDA MÉXICO-COYOACAN,6,OPN,3330,442,-99.1653,19.359905,"BIKE,TPV",S/N,"432,443,444",XOC
443 - Bruno Trave-Avenida México-Coyoacan,30,443 BRUNO TRAVEN-GOLONDRINAS,0,OPN,3340,443,-99.162025,19.359655,BIKE,S/N,"432,442,444",1
444 - General Manuel Rincón-Agustín Gutierrez,15,444 GENERAL MANUEL RINCÓN-AGUSTÍN GUTIERREZ,3,OPN,3340,444,-99.159425,19.359384,BIKE,S/N,"431,432,443",GPM
445 - Riff-Avenida Rio Churubusco,33,445 RIFF-AVENIDA RIO CHURUBUSCO,3,OPN,3340,445,-99.156105,19.35827,BIKE,S/N,"431,444,446",GPM
446 - Riff-Avenida Rio Churubusco,32,446 RIFF-AVENIDA RIO CHURUBUSCO,3,OPN,3340,446,-99.1561282,19.3591196,"BIKE,TPV",S/N,"431,444,445",GPM
447 AGUSTÍN MELGAR-ZAMORA,10,447 AGUSTÍN MELGAR-ZAMORA,17,OPN,,447,-99.176776,19.418858,BIKE,S/N,447,JUA
DR. ANDRADE ARCOS DE BELÉN,28,448 DR. ANDRADE - ARCOS DE BELÉN,2,OPN,,448,-99.14447,19.426611,"BIKE,TPV",S/N,448,
449 ACAPULCO-PUEBLA,33,449 ACAPULCO-PUEBLA,3,OPN,,449,-99.174393,19.42018,BIKE,S/N,449,JUA
450 RAMOS ARIZPE-PUENTE DE ALVARADO,23,450 RAMOS ARIZPE-PUENTE DE ALVARADO,7,OPN,,450,-99.152226,19.43836,BIKE,S/N,450,TAB
451 CAMPOS ELÍSEOS-GOLDSMITH,36,451 CAMPOS ELÍSEOS-GOLDSMITH,0,OPN,,451,-99.201322,19.42902,BIKE,S/N,451,POL
452 LEIBNITZ-AV. EJERCITO NACIONAL,17,452 LEIBNITZ-AV. EJERCITO NACIONAL,0,OPN,,452,-99.179838,19.435031,BIKE,S/N,452,2
